[{"OBJECT_NAME":"STARLINK-34956","OBJECT_ID":"2025-175A","EPOCH":"2026-03-09T14:39:24.824736","MEAN_MOTION":15.05654373,"ECCENTRICITY":0.0002446,"INCLINATION":97.6021,"RA_OF_ASC_NODE":302.5036,"ARG_OF_PERICENTER":91.1529,"MEAN_ANOMALY":268.9978,"EPHEMERIS_TYPE":0,"CLASSIFICATION_TYPE":"U","NORAD_CAT_ID":65174,"ELEMENT_SET_NO":999,"REV_AT_EPOCH":3259,"BSTAR":2.3235e-5,"MEAN_MOTION_DOT":2.74e-6,"MEAN_MOTION_DDOT":0},{"OBJECT_NAME":"CZ-6A DEB","OBJECT_ID":"2022-151AEC","EPOCH":"2026-03-09T16:07:43.414464","MEAN_MOTION":15.01082395,"ECCENTRICITY":0.0040922,"INCLINATION":98.632,"RA_OF_ASC_NODE":144.2747,"ARG_OF_PERICENTER":190.1613,"MEAN_ANOMALY":169.8786,"EPHEMERIS_TYPE":0,"CLASSIFICATION_TYPE":"U","NORAD_CAT_ID":56604,"ELEMENT_SET_NO":999,"REV_AT_EPOCH":16341,"BSTAR":0.005850488,"MEAN_MOTION_DOT":0.00076879,"MEAN_MOTION_DDOT":0}]
